SARSAT 7 (NOAA 15)      
1 25338U 98030A   20115.82613089  .00000036  00000-0  33606-4 0  9998
2 25338  98.7220 141.1369 0011392  62.6068 297.6269 14.25960387141596
METEOSAT-8 (MSG-1)      
1 27509U 02040B   20115.86932575  .00000144  00000-0  00000-0 0  9992
2 27509   6.6333  54.3126 0001271 335.0659 178.2999  1.00269596 64754
GPS BIIR-08             
1 27663U 03005A   20115.25219469 -.00000029  00000-0  00000+0 0  9990
2 27663  56.0930 304.0917 0113951  34.8924 145.8741  2.00555094126271
GPS BIIR-11             
1 28190U 04009A   20115.80610058 -.00000077  00000-0  00000-0 0  9995
2 28190  56.2778   4.8614 0091380  91.6113 283.2296  2.00563073117975
GPS BIIR-12             
1 28361U 04023A   20115.45321299  .00000049  00000-0  00000+0 0  9995
2 28361  54.0582 177.6322 0143269 234.4317 139.2908  2.00389309116041
GPS BIIR-13             
1 28474U 04045A   20114.63763418 -.00000062  00000-0  00000-0 0  9993
2 28474  54.9363  55.1018 0200015 266.3525 262.7387  2.00562941113395
SARSAT 10 (NOAA 18)     
1 28654U 05018A   20115.89506225  .00000066  00000-0  60501-4 0  9993
2 28654  99.0491 171.8094 0014515  26.5224 333.6687 14.12505299769350
GPS BIIR-14M            
1 28874U 05038A   20114.51229954 -.00000079  00000-0  00000-0 0  9997
2 28874  56.3837   2.2946 0134887 266.0353 275.5325  2.00562698106792
METEOSAT-9 (MSG-2)      
1 28912U 05049B   20115.76344782  .00000025  00000-0  00000-0 0  9997
2 28912   4.3126  70.3159 0001176 345.7179  75.5896  1.00266454 52539
GOES 13                 
1 29155U 06018A   20115.84840986  .00000045  00000-0  00000-0 0  9992
2 29155   0.2690 270.3597 0004280 300.1425   9.3976  1.00272576 20852
SARSAT 11 (METOP-A)     
1 29499U 06044A   20115.89256534  .00000001  00000-0  19613-4 0  9993
2 29499  98.5283 164.5018 0001725  85.4079  87.3629 14.21495903701273
GPS BIIR-16M            
1 29601U 06052A   20114.81678295 -.00000030  00000-0  00000-0 0  9999
2 29601  56.0798 303.0282 0078926  64.6019 296.2151  2.00560004 98427
GPS BIIR-17M            
1 32260U 07047A   20115.12050993  .00000051  00000-0  00000+0 0  9994
2 32260  53.1828 173.0405 0120418  49.3537 311.7782  2.00563548 91809
GPS BIIR-18M            
1 32384U 07062A   20114.19149708 -.00000080  00000-0  00000-0 0  9991
2 32384  56.4779   2.9774 0011375 111.5421  67.5404  2.00573301 90502
SARSAT 12 (NOAA 19)     
1 33591U 09005A   20115.82430206  .00000018  00000-0  35384-4 0  9995
2 33591  99.1969 119.7749 0013285 223.1737 136.8393 14.12404448577563
GOES 14                 
1 35491U 09033A   20115.58521122 -.00000089  00000-0  00000-0 0  9990
2 35491   0.1935  97.8053 0008268 129.4088  92.3863  1.00271968 39614
GOES 15                 
1 36411U 10008A   20115.69188793  .00000060  00000-0  00000+0 0  9999
2 36411   0.2443 275.3740 0002052 131.8230 286.9363  1.00266864 37162
GLONASS-K 1             
1 37372U 11009A   20115.84506550 -.00000058  00000-0  00000+0 0  9998
2 37372  65.8487  29.5549 0008335 237.1687  26.4788  2.13107350 71262
GPS BIIF-2              
1 37753U 11036A   20115.48152122 -.00000049  00000-0  00000-0 0  9994
2 37753  56.1401  59.3997 0095819  42.9532 138.8684  2.00569295 64256
GSAT0101 (GALILEO-PFM)  
1 37846U 11060A   20110.29366870 -.00000086  00000-0  00000-0 0  9996
2 37846  56.5924  42.9094 0004609 343.6468  16.3140  1.70475631 52895
GSAT0102 (GALILEO-FM2)  
1 37847U 11060B   20115.20308088 -.00000071  00000-0  00000+0 0  9993
2 37847  56.5959  42.7738 0005654 325.3317 213.7136  1.70475704 52976
LUCH 5A                 
1 37951U 11074B   20115.89429421 -.00000039  00000-0  00000-0 0  9999
2 37951   3.1424 116.5442 0004291 301.6571 283.9920  1.00272053 30683
METEOSAT-10 (MSG-3)     
1 38552U 12035B   20115.86287029  .00000065  00000-0  00000-0 0  9996
2 38552   0.9963   8.3120 0000621 350.4040 174.4520  1.00269289 28382
SARSAT 13 (METOP-B)     
1 38771U 12049A   20115.90986111 -.00000000  00000-0  19903-4 0  9993
2 38771  98.6966 176.0192 0001907 127.5561 225.7008 14.21490855394416
GPS BIIF-3              
1 38833U 12053A   20115.22235027 -.00000000  00000-0  00000-0 0  9999
2 38833  53.6664 235.5624 0094879  37.1988 323.4416  2.00565218 54525
GSAT0103 (GALILEO-FM3)  
1 38857U 12055A   20114.44207733  .00000060  00000-0  00000-0 0  9998
2 38857  54.9677 163.2946 0004722 265.4453  94.5998  1.70473863 46874
GSAT0104 (GALILEO-FM4)  
1 38858U 12055B   20114.96300930  .00000062  00000-0  00000-0 0  9991
2 38858  54.9682 163.2796 0003607 271.2665  88.7908  1.70473788 46888
GPS BIIF-4              
1 39166U 13023A   20115.07939419 -.00000076  00000-0  00000+0 0  9998
2 39166  56.0492 358.9386 0080889  29.7578 330.7510  2.00565450 50849
INSAT-3D                
1 39216U 13038B   20115.82370664 -.00000151  00000-0  00000+0 0  9998
2 39216   0.0538 329.5481 0001800  73.8609 188.5589  1.00270659 24799
GPS BIIF-5              
1 39533U 14008A   20115.58184635  .00000000  00000-0  00000-0 0  9995
2 39533  53.7850 240.9769 0045711 196.8467 162.9839  2.00565035 44685
LUCH 5V                 
1 39727U 14023A   20114.86924345 -.00000264  00000-0  00000+0 0  9999
2 39727   0.6145 324.4249 0004399 101.2583 194.2390  1.00267541540002
GPS BIIF-6              
1 39741U 14026A   20115.36542552 -.00000051  00000-0  00000+0 0  9994
2 39741  56.1153  58.9319 0021059 296.7783  62.9849  2.00550201 43494
GPS BIIF-7              
1 40105U 14045A   20114.45136501  .00000049  00000-0  00000+0 0  9999
2 40105  54.5845 178.1454 0013479 105.9851 254.2491  2.00554726 41920
GSAT0201 (GALILEO 5)    
1 40128U 14050A   20115.50016705 -.00000095  00000-0  00000-0 0  9993
2 40128  50.5750   3.5246 1664647  97.5333 281.6078  1.85518908 36706
GSAT0202 (GALILEO 6)    
1 40129U 14050B   20114.14708453 -.00000100  00000-0  00000-0 0  9998
2 40129  50.6134   2.6131 1662772  98.3143 280.7964  1.85519688 38816
GPS BIIF-8              
1 40294U 14068A   20115.31917223  .00000047  00000-0  00000+0 0  9995
2 40294  55.3176 119.0324 0026136  35.6251 324.5744  2.00575633 40169
GLONASS-K 2             
1 40315U 14075A   20115.70049485  .00000008  00000-0  00000+0 0  9993
2 40315  63.9128 268.6930 0015341 203.5932  45.2633  2.13098582 42025
GPS BIIF-9              
1 40534U 15013A   20115.45764074 -.00000027  00000-0  00000-0 0  9992
2 40534  54.2699 297.0899 0047001  10.2885 349.7962  2.00571664 36801
GSAT0203 (GALILEO 7)    
1 40544U 15017A   20114.76691090 -.00000072  00000-0  00000-0 0  9997
2 40544  56.3879  42.9281 0003785 282.2971  77.6472  1.70474717 30922
GSAT0204 (GALILEO 8)    
1 40545U 15017B   20113.96172110 -.00000075  00000-0  00000-0 0  9999
2 40545  56.3940  42.9660 0001273 279.2014  80.7677  1.70475205 31574
GPS BIIF-10             
1 40730U 15033A   20115.11673948 -.00000076  00000-0  00000+0 0  9997
2 40730  55.5671 358.1339 0053696 351.7854   8.1782  2.00566043 34985
METEOSAT-11 (MSG-4)     
1 40732U 15034A   20115.78915597  .00000001  00000-0  00000-0 0  9990
2 40732   0.4760 216.3902 0000842 249.2048  31.4987  1.00274775 17532
GSAT0205 (GALILEO 9)    
1 40889U 15045A   20115.37810343 -.00000013  00000-0  00000-0 0  9997
2 40889  56.1970 283.5862 0004438  31.6384 328.3480  1.70475308 28741
GSAT0206 (GALILEO 10)   
1 40890U 15045B   20115.01110826 -.00000014  00000-0  00000-0 0  9990
2 40890  56.1961 283.5928 0002681  35.3356 324.6419  1.70475399 28767
GPS BIIF-11             
1 41019U 15062A   20115.16820312  .00000047  00000-0  00000-0 0  9992
2 41019  55.3148 118.8632 0056697 211.2333 148.4543  2.00564525 32801
ELEKTRO-L 2             
1 41105U 15074A   20115.94077149 -.00000091  00000-0  00000-0 0  9999
2 41105   1.0727  97.9748 0002748 328.3168 201.8107  1.00271201 16017
GSAT0209 (GALILEO 12)   
1 41174U 15079A   20115.18336344  .00000063  00000-0  00000+0 0  9998
2 41174  54.9824 162.9715 0005639 301.5400  58.5032  1.70473863 27087
GSAT0208 (GALILEO 11)   
1 41175U 15079B   20114.22995729  .00000060  00000-0  00000+0 0  9998
2 41175  54.9806 162.9971 0004815 300.7765  59.2752  1.70473989 27077
GPS BIIF-12             
1 41328U 16007A   20115.25973461  .00000050  00000-0  00000-0 0  9993
2 41328  54.8215 178.5852 0040282 221.3988 138.3817  2.00559645 30864
GSAT0211 (GALILEO 14)   
1 41549U 16030A   20114.35208369 -.00000015  00000-0  00000+0 0  9993
2 41549  56.3393 283.4617 0002414 348.3852  11.5694  1.70475048 24366
GSAT0210 (GALILEO 13)   
1 41550U 16030B   20115.23163371 -.00000013  00000-0  00000-0 0  9995
2 41550  56.3378 283.4393 0000990 295.6906  64.2587  1.70475179 24397
INSAT-3DR               
1 41752U 16054A   20115.83729815 -.00000073  00000-0  00000-0 0  9998
2 41752   0.1456  92.2659 0011632 184.5010 311.9847  1.00273732 13307
GSAT0207 (GALILEO 15)   
1 41859U 16069A   20115.47631363  .00000063  00000-0  00000-0 0  9990
2 41859  54.6405 163.3397 0005568 290.6184  69.4196  1.70473746 21297
GSAT0212 (GALILEO 16)   
1 41860U 16069B   20114.74316898  .00000060  00000-0  00000-0 0  9991
2 41860  54.6378 163.3590 0004421 306.8705  53.1879  1.70473803 21370
GSAT0213 (GALILEO 17)   
1 41861U 16069C   20113.93589375  .00000057  00000-0  00000-0 0  9990
2 41861  54.6414 163.3851 0004909 272.6074  87.4353  1.70473855 21365
GSAT0214 (GALILEO 18)   
1 41862U 16069D   20115.25603589  .00000062  00000-0  00000-0 0  9998
2 41862  54.6387 163.3441 0004098 277.1336  82.9180  1.70473890 21378
GOES 16                 
1 41866U 16071A   20115.77423862 -.00000244  00000-0  00000+0 0  9998
2 41866   0.0131 294.8450 0000886 141.7156 340.2584  1.00272176 12602
GSAT-17                 
1 42815U 17040B   20115.81610509 -.00000253  00000-0  00000-0 0  9992
2 42815   0.0716  95.3437 0002681 209.8427 295.3967  1.00271642 10281
GSAT0215 (GALILEO 19)   
1 43055U 17079A   20115.15915152 -.00000013  00000-0  00000-0 0  9994
2 43055  56.3115 283.2843 0000324 289.8137  70.1421  1.70474294 14713
GSAT0216 (GALILEO 20)   
1 43056U 17079B   20114.86536452 -.00000014  00000-0  00000+0 0  9994
2 43056  56.3138 283.2918 0002209 275.9702  83.9640  1.70474424 14697
GSAT0217 (GALILEO 21)   
1 43057U 17079C   20115.08540660 -.00000013  00000-0  00000-0 0  9996
2 43057  56.3114 283.2865 0001931 303.2242  56.7166  1.70474345 14714
GSAT0218 (GALILEO 22)   
1 43058U 17079D   20113.54562941 -.00000017  00000-0  00000-0 0  9996
2 43058  56.3132 283.3259 0002615 269.2740  90.6577  1.70474367 14714
GOES 17                 
1 43226U 18022A   20115.76185112  .00000102  00000-0  00000+0 0  9992
2 43226   0.0187 286.7890 0000534 116.9165 306.6145  1.00273451  7922
GSAT0221 (GALILEO 25)   
1 43564U 18060A   20115.20526816 -.00000071  00000-0  00000-0 0  9995
2 43564  56.7765  42.5291 0004964 293.5159  66.4213  1.70475694 10893
GSAT0222 (GALILEO 26)   
1 43565U 18060B   20114.25195067 -.00000074  00000-0  00000-0 0  9993
2 43565  56.7781  42.5544 0004960 301.4949  58.4419  1.70475621 10928
GSAT0219 (GALILEO 23)   
1 43566U 18060C   20113.88559045 -.00000076  00000-0  00000-0 0  9994
2 43566  56.7787  42.5661 0004546 298.3789  61.5591  1.70475636 10899
GSAT0220 (GALILEO 24)   
1 43567U 18060D   20114.10547006 -.00000075  00000-0  00000+0 0  9993
2 43567  56.7780  42.5608 0004646 299.6081  60.3304  1.70475782 10873
BEIDOU-3 M13            
1 43622U 18072A   20115.69013863  .00000066  00000-0  00000+0 0  9991
2 43622  55.1181 137.7269 0008373 283.7921 176.4924  1.86231617 10850
BEIDOU-3 M14            
1 43623U 18072B   20115.53408127  .00000066  00000-0  00000-0 0  9997
2 43623  55.1197 137.7232 0006875 302.7066 143.1486  1.86231682 10851
METEOR-M2 2             
1 44387U 19038A   20115.88345102 -.00000029  00000-0  61431-5 0  9999
2 44387  98.6149  77.0036 0002223  55.9653 304.1737 14.23678247 41914
